OBJECT_NAME,OBJECT_ID,EPOCH,MEAN_MOTION,ECCENTRICITY,INCLINATION,RA_OF_ASC_NODE,ARG_OF_PERICENTER,MEAN_ANOMALY,EPHEMERIS_TYPE,CLASSIFICATION_TYPE,NORAD_CAT_ID,ELEMENT_SET_NO,REV_AT_EPOCH,BSTAR,MEAN_MOTION_DOT,MEAN_MOTION_DDOT
KUZGTU 1 (RS47S),2023-091AV,2026-07-21T15:01:32.374560,15.30562021,.0009427,97.5042,267.4710,342.1754,17.9155,0,U,57217,999,16964,.34932704E-3,.1026E-3,0
SONATE-2,2024-043Q,2026-07-20T22:37:37.167456,15.61151934,.00065635,97.5562,354.4821,88.1508,272.0500,0,U,59112,999,13315,.394398E-3,.33286E-3,0
MESAT1,2024-125G,2026-07-21T13:35:48.414912,15.67049906,.00106025,97.2242,60.9233,93.3414,266.9060,0,U,60209,999,11494,.65888773E-3,.70659E-3,0
OOV-CUBE (TUBSAT-30),2024-128F,2026-07-21T10:54:48.644352,15.02891484,.00402885,61.9942,106.0728,141.4397,218.9585,0,U,60240,999,11126,.12029468E-3,.1434E-4,0
COLIBRI-S (RS67S),2024-199M,2026-07-21T15:15:40.692096,15.49041990,.00095822,97.2940,76.8288,141.2824,218.9116,0,U,61746,999,14274,.41432754E-3,.22431E-3,0
HORS 3 (RS81S),2024-199U,2026-07-21T14:53:11.817024,15.57243146,.00078042,97.2922,79.1972,136.8206,223.3663,0,U,61753,999,14291,.52877788E-3,.38575E-3,0
HORS 4 (RS82S),2024-199V,2026-07-21T14:16:58.840608,15.62879153,.00074982,97.2863,80.6177,130.8556,229.3353,0,U,61754,999,14301,.62988871E-3,.57086E-3,0
SIT-2086,2024-199AF,2026-07-21T15:22:07.055616,15.55359397,.00085929,97.2882,79.5744,125.8455,234.3599,0,U,61764,999,13978,.59159516E-3,.40287E-3,0
HYPERVIEW 1G (RS66S),2024-199AP,2026-07-21T13:10:11.757216,15.87680387,.00083616,97.2784,84.2817,135.9395,224.2544,0,U,61772,999,14010,.47850323E-3,.128835E-2,0
ALTAIR (RS65S),2024-199AW,2026-07-21T14:38:13.449696,15.37593101,.00127593,97.2986,71.7400,173.2973,186.8445,0,U,61779,999,14240,.23835033E-3,.8735E-4,0
ASRTU-1 (AO-123),2024-199AY,2026-07-21T15:06:28.363680,15.36115289,.00137142,97.2957,70.9925,177.0874,183.0452,0,U,61781,999,13921,.20080116E-3,.7004E-4,0
SAMSAT-IONOSPHERE (RS75S),2024-199BB,2026-07-21T14:07:04.298016,15.60573969,.00098473,97.2886,79.3519,140.6033,219.5943,0,U,61784,999,14292,.65303611E-3,.54188E-3,0
RTU MIREA 1 (RS51S),2024-199BC,2026-07-21T14:11:38.084928,15.64873924,.00098707,97.2873,80.3847,136.8194,223.3841,0,U,61785,999,13984,.69225238E-3,.68016E-3,0
TEVEL2-4,2025-052D,2026-07-21T15:53:55.991040,15.35722053,.00029408,97.3852,99.1315,39.0087,321.1368,0,U,63213,999,7540,.54488916E-3,.18876E-3,0
TEVEL2-5,2025-052E,2026-07-21T05:32:25.574784,15.35513919,.00030072,97.3850,98.6364,41.9307,318.2166,0,U,63214,999,7533,.40163517E-3,.13792E-3,0
TEVEL2-6,2025-052F,2026-07-21T05:51:18.650304,15.35478834,.0003085,97.3856,98.6345,43.9320,316.2168,0,U,63215,999,7533,.4237897E-3,.14542E-3,0
TEVEL2-1,2025-052H,2026-07-20T23:01:26.909472,15.34894951,.00037459,97.3828,97.9321,47.7905,312.3656,0,U,63217,999,7527,.37939109E-3,.12768E-3,0
TEVEL2-3,2025-052J,2026-07-21T06:41:12.270336,15.34968740,.00035182,97.3838,98.2781,50.2315,309.9238,0,U,63218,999,7532,.41932714E-3,.14156E-3,0
TEVEL2-2,2025-052K,2026-07-21T05:17:04.845408,15.34915096,.00038099,97.3827,98.1963,47.4460,312.7104,0,U,63219,999,7531,.41373721E-3,.13942E-3,0
OTP-2,2025-052AB,2026-07-21T11:54:53.929728,15.24393454,.00078143,97.3822,94.4168,53.5466,306.6491,0,U,63235,999,7509,.27650629E-3,.6711E-4,0
TEVEL2-9,2025-052AD,2026-07-21T05:49:15.661632,15.32853308,.00070834,97.3890,97.5180,39.6084,320.5675,0,U,63237,999,7524,.41132929E-3,.12991E-3,0
TEVEL2-7,2025-052AE,2026-07-21T03:49:57.011232,15.32531062,.00072173,97.3894,97.3362,40.1547,320.0227,0,U,63238,999,7522,.38802823E-3,.12126E-3,0
TEVEL2-8,2025-052AF,2026-07-21T11:52:25.242240,15.32528866,.00072293,97.3893,97.6468,39.9501,320.2272,0,U,63239,999,7527,.47862667E-3,.1498E-3,0
INNOSAT 16 (RS92S7),2025-155C,2026-07-21T15:11:21.804864,15.25785797,.00122842,97.4588,169.6638,69.1525,291.1027,0,U,64878,999,8592,.21376597E-3,.5398E-4,0
GEOSCAN 6 (RS92S6),2025-155D,2026-07-21T15:18:22.885632,15.30739059,.00096406,97.4578,171.3427,64.0700,296.1533,0,U,64879,999,8603,.33080499E-3,.9766E-4,0
GEOSCAN 1 (RS92S1),2025-155E,2026-07-21T15:01:33.464064,15.31393273,.0009595,97.4574,171.5103,64.2870,295.9360,0,U,64880,999,8604,.35042046E-3,.10564E-3,0
239ALFEROV (RS61S),2025-155F,2026-07-21T14:37:29.114400,15.33792017,.00092913,97.4574,172.1760,64.5675,295.6528,0,U,64881,999,8608,.45237771E-3,.14735E-3,0
GEOSCAN 2 (RS92S2),2025-155Q,2026-07-21T14:43:58.741248,15.31650552,.00086363,97.4574,171.6638,54.6721,305.5327,0,U,64890,999,8605,.35544358E-3,.108E-3,0
GEOSCAN 5 (RS92S5),2025-155R,2026-07-21T14:11:38.172192,15.34094953,.00083525,97.4566,172.3082,69.9528,290.2613,0,U,64891,999,8609,.45231813E-3,.14871E-3,0
GEOSCAN 4 (RS92S4),2025-155S,2026-07-21T15:17:33.320544,15.34267101,.00082478,97.4571,172.4133,69.8861,290.3269,0,U,64892,999,8610,.43260006E-3,.14296E-3,0
