KUZGTU 1 (RS47S)        
1 57217U 23091AV  26202.62606915  .00010260  00000+0  34933-3 0  9997
2 57217  97.5042 267.4710 0009427 342.1754  17.9155 15.30562021169645
SONATE-2                
1 59112U 24043Q   26201.94279129  .00033286  00000+0  39440-3 0  9999
2 59112  97.5562 354.4821 0006563  88.1508 272.0500 15.61151934133156
MESAT1                  
1 60209U 24125G   26202.56653258  .00070659  00000+0  65889-3 0  9998
2 60209  97.2242  60.9233 0010602  93.3414 266.9060 15.67049906114946
OOV-CUBE (TUBSAT-30)    
1 60240U 24128F   26202.45472968  .00001434  00000+0  12029-3 0  9994
2 60240  61.9942 106.0728 0040288 141.4397 218.9585 15.02891484111261
COLIBRI-S (RS67S)       
1 61746U 24199M   26202.63588764  .00022431  00000+0  41433-3 0  9997
2 61746  97.2940  76.8288 0009582 141.2824 218.9116 15.49041990142740
HORS 3 (RS81S)          
1 61753U 24199U   26202.62027566  .00038575  00000+0  52878-3 0  9993
2 61753  97.2922  79.1972 0007804 136.8206 223.3663 15.57243146142915
HORS 4 (RS82S)          
1 61754U 24199V   26202.59512547  .00057086  00000+0  62989-3 0  9990
2 61754  97.2863  80.6177 0007498 130.8556 229.3353 15.62879153143018
SIT-2086                
1 61764U 24199AF  26202.64035944  .00040287  00000+0  59160-3 0  9990
2 61764  97.2882  79.5744 0008592 125.8455 234.3599 15.55359397139787
HYPERVIEW 1G (RS66S)    
1 61772U 24199AP  26202.54874719  .00128835  00000+0  47850-3 0  9998
2 61772  97.2784  84.2817 0008361 135.9395 224.2544 15.87680387140107
ALTAIR (RS65S)          
1 61779U 24199AW  26202.60987789  .00008735  00000+0  23835-3 0  9997
2 61779  97.2986  71.7400 0012759 173.2973 186.8445 15.37593101142400
ASRTU-1 (AO-123)        
1 61781U 24199AY  26202.62949495  .00007004  00000+0  20080-3 0  9991
2 61781  97.2957  70.9925 0013714 177.0874 183.0452 15.36115289139216
SAMSAT-IONOSPHERE (RS7*)
1 61784U 24199BB  26202.58824419  .00054188  00000+0  65304-3 0  9990
2 61784  97.2886  79.3519 0009847 140.6033 219.5943 15.60573969142929
RTU MIREA 1 (RS51S)     
1 61785U 24199BC  26202.59141302  .00068016  00000+0  69225-3 0  9996
2 61785  97.2873  80.3847 0009870 136.8194 223.3841 15.64873924139848
TEVEL2-4                
1 63213U 25052D   26202.66245360  .00018876  00000+0  54489-3 0  9995
2 63213  97.3852  99.1315 0002940  39.0087 321.1368 15.35722053 75404
TEVEL2-5                
1 63214U 25052E   26202.23085156  .00013792  00000+0  40164-3 0  9991
2 63214  97.3850  98.6364 0003007  41.9307 318.2166 15.35513919 75337
TEVEL2-6                
1 63215U 25052F   26202.24396586  .00014542  00000+0  42379-3 0  9999
2 63215  97.3856  98.6345 0003085  43.9320 316.2168 15.35478834 75332
TEVEL2-1                
1 63217U 25052H   26201.95933923  .00012768  00000+0  37939-3 0  9994
2 63217  97.3828  97.9321 0003745  47.7905 312.3656 15.34894951 75276
TEVEL2-3                
1 63218U 25052J   26202.27861424  .00014156  00000+0  41933-3 0  9999
2 63218  97.3838  98.2781 0003518  50.2315 309.9238 15.34968740 75326
TEVEL2-2                
1 63219U 25052K   26202.22019497  .00013942  00000+0  41374-3 0  9991
2 63219  97.3827  98.1963 0003809  47.4460 312.7104 15.34915096 75317
OTP-2                   
1 63235U 25052AB  26202.49645752  .00006711  00000+0  27651-3 0  9995
2 63235  97.3822  94.4168 0007814  53.5466 306.6491 15.24393454 75093
TEVEL2-9                
1 63237U 25052AD  26202.24254238  .00012991  00000+0  41133-3 0  9993
2 63237  97.3890  97.5180 0007083  39.6084 320.5675 15.32853308 75241
TEVEL2-7                
1 63238U 25052AE  26202.15968763  .00012126  00000+0  38803-3 0  9999
2 63238  97.3894  97.3362 0007217  40.1547 320.0227 15.32531062 75222
TEVEL2-8                
1 63239U 25052AF  26202.49473660  .00014980  00000+0  47863-3 0  9990
2 63239  97.3893  97.6468 0007229  39.9501 320.2272 15.32528866 75276
INNOSAT 16 (RS92S7)     
1 64878U 25155C   26202.63289126  .00005398  00000+0  21377-3 0  9997
2 64878  97.4588 169.6638 0012284  69.1525 291.1027 15.25785797 85922
GEOSCAN 6 (RS92S6)      
1 64879U 25155D   26202.63776488  .00009766  00000+0  33080-3 0  9997
2 64879  97.4578 171.3427 0009640  64.0700 296.1533 15.30739059 86035
GEOSCAN 1 (RS92S1)      
1 64880U 25155E   26202.62608176  .00010564  00000+0  35042-3 0  9994
2 64880  97.4574 171.5103 0009595  64.2870 295.9360 15.31393273 86046
239ALFEROV (RS61S)      
1 64881U 25155F   26202.60936475  .00014735  00000+0  45238-3 0  9991
2 64881  97.4574 172.1760 0009291  64.5675 295.6528 15.33792017 86080
GEOSCAN 2 (RS92S2)      
1 64890U 25155Q   26202.61387432  .00010800  00000+0  35544-3 0  9993
2 64890  97.4574 171.6638 0008636  54.6721 305.5327 15.31650552 86052
GEOSCAN 5 (RS92S5)      
1 64891U 25155R   26202.59141403  .00014871  00000+0  45232-3 0  9994
2 64891  97.4566 172.3082 0008352  69.9528 290.2613 15.34094953 86096
GEOSCAN 4 (RS92S4)      
1 64892U 25155S   26202.63719121  .00014296  00000+0  43260-3 0  9998
2 64892  97.4571 172.4133 0008247  69.8861 290.3269 15.34267101 86100
